UBAKUSAT                
1 43467U 98067NQ  19280.86054291  .00013553  00000-0  13989-3 0  9999
2 43467  51.6358 135.9904 0002822 138.3622 221.7589 15.65119896 80276
BATSU-CS1 (IRAZU)       
1 43468U 98067NR  19280.92755555  .00046537  00000-0  30616-3 0  9992
2 43468  51.6346 122.1004 0001993 200.0222 160.0700 15.75193941180448
CUBERRT                 
1 43546U 98067NU  19280.87551295  .00007561  00000-0  75336-4 0  9991
2 43546  51.6368 135.3402 0004092 186.7056 173.3886 15.66821909 70414
TEMPEST-D               
1 43547U 98067NV  19280.91930682  .00003448  00000-0  49809-4 0  9994
2 43547  51.6376 148.4031 0005632 173.3456 186.7613 15.59039242 69927
RAINCUBE                
1 43548U 98067NW  19280.88806698  .00013992  00000-0  15187-3 0  9996
2 43548  51.6355 141.4074 0005605 187.5353 172.5558 15.63793253 70464
HALOSAT                 
1 43549U 98067NX  19280.83390350  .00013559  00000-0  14802-3 0  9997
2 43549  51.6368 141.8187 0005334 190.0028 170.0861 15.63679968 70012
ENDUROSAT ONE           
1 43551U 98067NZ  19280.85589860  .00016894  00000-0  16809-3 0  9992
2 43551  51.6360 138.2097 0005768 199.0800 160.9980 15.65830092 70474
EQUISAT                 
1 43552U 98067PA  19280.87644178  .00013256  00000-0  14295-3 0  9995
2 43552  51.6376 140.6367 0006035 197.4784 162.6004 15.64014395 70408
AEROCUBE 12A            
1 43556U 18046C   19280.90683041  .00002119  00000-0  86705-4 0  9996
2 43556  51.6419 243.0719 0008837 106.9000 253.2950 15.28978396 68579
AEROCUBE 12B            
1 43557U 18046D   19280.93068636  .00000705  00000-0  37453-4 0  9992
2 43557  51.6419 243.2260 0008987 106.5247 253.6721 15.28812038 68523
UITMSAT-1               
1 43589U 98067PD  19280.86309428  .00014895  00000-0  15732-3 0  9997
2 43589  51.6348 141.2149 0005378 203.8075 156.2672 15.64431016 66134
MAYA-1                  
1 43590U 98067PE  19280.85693671  .00015311  00000-0  16145-3 0  9997
2 43590  51.6352 141.1797 0005486 204.0531 156.0208 15.64446136 66063
BHUTAN-1                
1 43591U 98067PF  19280.84343635  .00015202  00000-0  15997-3 0  9992
2 43591  51.6362 141.1226 0005586 204.8512 155.2215 15.64505999 66062
SIRIUSSAT-1             
1 43595U 98067PG  19280.89235699  .00014550  00000-0  15938-3 0  9991
2 43595  51.6349 142.9179 0003972 164.9663 195.1451 15.63525370 65223
SIRIUSSAT-2             
1 43596U 98067PH  19280.87034918  .00013626  00000-0  15061-3 0  9991
2 43596  51.6361 143.5683 0004469 165.4656 194.6468 15.63357286 65215
TANUSHA-3               
1 43597U 98067PJ  19280.86430017  .00019187  00000-0  19125-3 0  9994
2 43597  51.6342 140.4438 0004063 179.8371 180.2626 15.65687127 65255
SURFSAT                 
1 43614U 18070B   19280.87942564  .00002773  00000-0  74391-4 0  9996
2 43614  93.0332  49.5809 0013645 230.7064 129.2981 15.37950594 59493
CP7 (DAVE)              
1 43615U 18070C   19280.89153838  .00002814  00000-0  75729-4 0  9999
2 43615  93.0334  49.5847 0013773 230.1184 129.8859 15.37853703 59491
ELFIN-B                 
1 43616U 18070D   19280.91409370  .00003539  00000-0  92714-4 0  9996
2 43616  93.0294  49.5009 0014479 234.0494 125.9418 15.38651262 59516
ELFIN-A                 
1 43617U 18070E   19280.83920265  .00004140  00000-0  10821-3 0  9996
2 43617  93.0349  49.7718 0013779 230.5359 129.4677 15.38723407 59506
CUBEBEL-1 (BSUSAT-1)    
1 43666U 18083E   19280.91411866  .00000857  00000-0  45744-4 0  9999
2 43666  97.5147 304.6099 0015464 156.8674 287.6437 15.17748734 52155
DEBRISSAT-2             
1 43680U 98067PR  19280.83033896  .00025275  00000-0  23356-3 0  9994
2 43680  51.6349 139.5135 0003901 193.5857 166.5035 15.67388069 73996
CICERO 10               
1 43690U 18088A   19280.90601845  .00000929  00000-0  41404-4 0  9997
2 43690  85.0372 245.2762 0015978 151.8936 208.3171 15.19798602 50241
IRVINE01                
1 43693U 18088D   19280.89273811  .00002204  00000-0  95070-4 0  9992
2 43693  85.0345 244.6539 0019829 137.9231 222.3538 15.21739485 50274
PROXIMA I               
1 43694U 18088E   19280.92360604  .00000961  00000-0  40617-4 0  9999
2 43694  85.0317 244.4316 0021160 130.8687 229.4393 15.21526593 50296
PROXIMA II              
1 43696U 18088G   19280.92239822  .00000950  00000-0  40126-4 0  9991
2 43696  85.0318 244.4340 0021192 130.8037 229.5048 15.21530925 50281
FACSAT-1                
1 43721U 18096C   19280.85233269  .00001321  00000-0  53253-4 0  9998
2 43721  97.4502 350.4938 0016397 300.5935  59.3686 15.26531610 47692
CENTAURI-2              
1 43722U 18096D   19280.61858614  .00001630  00000-0  64507-4 0  9997
2 43722  97.4506 350.3505 0016549 301.9565  58.0064 15.26812008 47654
INNOSAT-2               
1 43738U 18096V   19280.91415857  .00002242  00000-0  81632-4 0  9993
2 43738  97.4512 351.6446 0022817 310.8379  49.0882 15.29066282 47772
SIRION PATHFINDER-2     
1 43759U 18099B   19280.88051062  .00000569  00000-0  57043-4 0  9998
2 43759  97.7359 351.4499 0013073 313.8481  46.1659 14.95168809 46043
CORVUS-BC 4             
1 43767U 18099K   19280.86104647  .00000082  00000-0  12862-4 0  9993
2 43767  97.7342 351.1112 0010735 318.4749  41.5655 14.94609852 46023
MOVE-II                 
1 43780U 18099Y   19280.76837528  .00000263  00000-0  29224-4 0  9999
2 43780  97.7356 351.2429 0012642 326.7357  33.3068 14.95144613 46006
SPACEBEE-7              
1 43816U 18099BL  19280.82765125  .00000494  00000-0  49804-4 0  9991
2 43816  97.7371 351.5278 0012142 310.3941  49.6219 14.95482148 45589
SPACEBEE-5              
1 43817U 18099BM  19280.65987011  .00000714  00000-0  69125-4 0  9996
2 43817  97.7393 351.4974 0012026 309.8474  50.1688 14.95797714 45564
SPACEBEE-6              
1 43818U 18099BN  19280.74934544  .00000953  00000-0  91041-4 0  9997
2 43818  97.7378 351.4936 0012011 309.8202  50.1961 14.95582588 45722
SHIELDS 1               
1 43850U 18104B   19280.62640139  .00000041  00000-0  00000-0 0  9990
2 43850  85.0301 343.1411 0011991 284.2065  75.7881 15.21158429 44882
STF-1                   
1 43852U 18104D   19280.66376312  .00000041  00000-0  00000-0 0  9995
2 43852  85.0353 343.4530 0012612 302.3394  57.6640 15.20765251 44871
ZACUBE-2                
1 43907U 18111AH  19280.81993330  .00000551  00000-0  25311-4 0  9998
2 43907  97.2796 182.9480 0020645 323.1884  36.7935 15.24287042 43378
LUME 1                  
1 43908U 18111AJ  19280.79990209  .00001045  00000-0  45129-4 0  9996
2 43908  97.2795 182.9721 0020593 323.4272  36.5558 15.24509805 43375
AOBA VELOX-IV           
1 43940U 19003J   19280.84826654  .00001547  00000-0  65995-4 0  9991
2 43940  97.2657 335.4200 0025471  42.9589  51.9462 15.24104398 40010
CATSAT-2                
1 44029U 98067PV  19280.69666899  .00009068  00000-0  12383-3 0  9991
2 44029  51.6382 155.1882 0004801 194.6183 165.4671 15.58277293 38876
DELPHINI                
1 44030U 98067PW  19280.87165485  .00010766  00000-0  14464-3 0  9997
2 44030  51.6365 154.0813 0004783 191.0899 168.9989 15.58484735 38876
UNITE                   
1 44031U 98067PX  19280.86341055  .00007155  00000-0  10418-3 0  9999
2 44031  51.6383 155.5363 0003405 184.8630 175.2329 15.56918396 38856
TECHEDSAT 8             
1 44032U 98067PY  19280.87924057  .00032324  00000-0  33148-3 0  9991
2 44032  51.6363 148.8795 0004274 188.3272 171.7653 15.64637092 38924
CATSAT-1                
1 44033U 98067PZ  19280.88893681  .00009677  00000-0  13164-3 0  9992
2 44033  51.6384 154.2235 0004509 194.8175 165.2686 15.58290946 38811
RAAVANA-1               
1 44329U 98067QE  19280.10583865  .00007283  00000-0  12077-3 0  9998
2 44329  51.6400 164.7378 0007893 131.6149 228.5519 15.53261305 17414
UGUISU                  
1 44330U 98067QF  19280.88070422  .00007598  00000-0  12580-3 0  9993
2 44330  51.6400 160.9121 0007845 133.1477 227.0170 15.53231081 17514
NEPALISAT-1             
1 44331U 98067QG  19280.87536809  .00007646  00000-0  12620-3 0  9998
2 44331  51.6400 160.8778 0007884 135.6078 224.5545 15.53307685 17522
SPOOQY-1                
1 44332U 98067QH  19280.87289085  .00007294  00000-0  12067-3 0  9994
2 44332  51.6398 160.8593 0006659 136.9207 223.2305 15.53331423 17483
SPACEBEE-9              
1 44370U 19037F   19280.85471813  .00005750  00000-0  14929-3 0  9990
2 44370  45.0141  89.8112 0014522 136.7137 223.4894 15.39947658 15461
SPACEBEE-8              
1 44371U 19037G   19280.89307404  .00011454  00000-0  28034-3 0  9999
2 44371  45.0142  89.2564 0014140 141.4715 218.7186 15.40842406 15467
MOVE-IIB                
1 44398U 19038N   19280.89341770  .00001257  00000-0  77087-4 0  9996
2 44398  97.5005 241.0253 0023929 282.1867  77.6683 15.11742110 14265
SONATE                  
1 44400U 19038Q   19280.89237476  .00000460  00000-0  30705-4 0  9998
2 44400  97.5020 241.0344 0023781 279.9739  79.8808 15.11696513 14263
LUCKY-7                 
1 44406U 19038W   19280.88064902  .00000536  00000-0  34951-4 0  9996
2 44406  97.5019 241.0489 0023272 280.0630  79.7974 15.11894446 14252
BEESAT 9                
1 44412U 19038AC  19280.88359603  .00000785  00000-0  49487-4 0  9994
2 44412  97.5016 241.0428 0021450 286.4718  73.4155 15.11865998 13950
JAISAT-1                
1 44419U 19038F   19280.85272278  .00000836  00000-0  51794-4 0  9991
2 44419  97.5019 241.0851 0020239 286.5450  73.3558 15.12356873 14267
SWIATOWID               
1 44426U 98067QL  19280.85912985  .00011509  00000-0  18670-3 0  9998
2 44426  51.6428 161.3606 0005642 101.8460 335.4605 15.53231080 15008
KRAKSAT                 
1 44427U 98067QM  19280.86424106  .00005920  00000-0  10245-3 0  9993
2 44427  51.6413 161.5609 0004777  96.1462 264.0073 15.52464236 15044
VCC A                   
1 44428U 98067QN  19280.91274775  .00006803  00000-0  11508-3 0  9999
2 44428  51.6415 161.1361 0004125 113.0960 247.0465 15.52834250 15051
